{
  "type": "FeatureCollection",
  "features": [
    {
      "type": "Feature",
      "properties": {
        "norad_id": 31036,
        "name": "FENGYUN 1C DEB",
        "group": "fengyun-1c-debris",
        "lat": 14.03003067015234,
        "lon": -81.32689959394055,
        "alt_km": 727.7417966420662,
        "timestamp": "2025-12-15T19:00:45.636872+00:00",
        "meta_object_name": "FENGYUN 1C DEB",
        "meta_object_id": "1999-025BEE",
        "meta_epoch": "2025-12-14T12:41:08.179296",
        "meta_mean_motion": 14.49076723,
        "meta_eccentricity": 0.01375028,
        "meta_inclination": 98.9149,
        "meta_ra_of_asc_node": 95.0906,
        "meta_arg_of_pericenter": 259.1679,
        "meta_mean_anomaly": 159.9383,
        "meta_ephemeris_type": 0,
        "meta_classification_type": "U",
        "meta_norad_cat_id": 31036,
        "meta_element_set_no": 999,
        "meta_rev_at_epoch": 57333,
        "meta_bstar": 0.00029854348,
        "meta_mean_motion_dot": 1.22e-05,
        "meta_mean_motion_ddot": 0,
        "tle_line1": "1 31036U 99025BEE 25348.52856689  .00001220  00000+0  29854-3 0  9994",
        "tle_line2": "2 31036  98.9149  95.0906 0137502 259.1679 159.9383 14.49076723573333"
      },
      "geometry": {
        "type": "Point",
        "coordinates": [
          -81.32689959394055,
          14.03003067015234
        ]
      }
    },
    {
      "type": "Feature",
      "properties": {
        "norad_id": 31038,
        "name": "FENGYUN 1C DEB",
        "group": "fengyun-1c-debris",
        "lat": -66.89709445694076,
        "lon": 95.84399445677097,
        "alt_km": 727.5337789081213,
        "timestamp": "2025-12-15T19:00:45.636883+00:00",
        "meta_object_name": "FENGYUN 1C DEB",
        "meta_object_id": "1999-025BEG",
        "meta_epoch": "2025-12-14T05:07:49.321920",
        "meta_mean_motion": 14.45832545,
        "meta_eccentricity": 0.00841141,
        "meta_inclination": 99.0135,
        "meta_ra_of_asc_node": 72.3236,
        "meta_arg_of_pericenter": 224.0886,
        "meta_mean_anomaly": 135.3577,
        "meta_ephemeris_type": 0,
        "meta_classification_type": "U",
        "meta_norad_cat_id": 31038,
        "meta_element_set_no": 999,
        "meta_rev_at_epoch": 98256,
        "meta_bstar": 0.00070046547,
        "meta_mean_motion_dot": 2.545e-05,
        "meta_mean_motion_ddot": 0,
        "tle_line1": "1 31038U 99025BEG 25348.21376530  .00002545  00000+0  70047-3 0  9995",
        "tle_line2": "2 31038  99.0135  72.3236 0084114 224.0886 135.3577 14.45832545982567"
      },
      "geometry": {
        "type": "Point",
        "coordinates": [
          95.84399445677097,
          -66.89709445694076
        ]
      }
    },
    {
      "type": "Feature",
      "properties": {
        "norad_id": 31040,
        "name": "FENGYUN 1C DEB",
        "group": "fengyun-1c-debris",
        "lat": -1.920124937584811,
        "lon": -20.144282388301054,
        "alt_km": 881.0096802314756,
        "timestamp": "2025-12-15T19:00:45.636893+00:00",
        "meta_object_name": "FENGYUN 1C DEB",
        "meta_object_id": "1999-025BEJ",
        "meta_epoch": "2025-12-14T11:33:26.565408",
        "meta_mean_motion": 14.17674294,
        "meta_eccentricity": 0.00623601,
        "meta_inclination": 98.6581,
        "meta_ra_of_asc_node": 338.2857,
        "meta_arg_of_pericenter": 189.053,
        "meta_mean_anomaly": 323.79,
        "meta_ephemeris_type": 0,
        "meta_classification_type": "U",
        "meta_norad_cat_id": 31040,
        "meta_element_set_no": 999,
        "meta_rev_at_epoch": 96731,
        "meta_bstar": 0.00039102958,
        "meta_mean_motion_dot": 7.68e-06,
        "meta_mean_motion_ddot": 0,
        "tle_line1": "1 31040U 99025BEJ 25348.48155747  .00000768  00000+0  39103-3 0  9995",
        "tle_line2": "2 31040  98.6581 338.2857 0062360 189.0530 323.7900 14.17674294967311"
      },
      "geometry": {
        "type": "Point",
        "coordinates": [
          -20.144282388301054,
          -1.920124937584811
        ]
      }
    },
    {
      "type": "Feature",
      "properties": {
        "norad_id": 31041,
        "name": "FENGYUN 1C DEB",
        "group": "fengyun-1c-debris",
        "lat": -56.05565415650833,
        "lon": -175.39629109205043,
        "alt_km": 822.2893447656888,
        "timestamp": "2025-12-15T19:00:45.636903+00:00",
        "meta_object_name": "FENGYUN 1C DEB",
        "meta_object_id": "1999-025BEK",
        "meta_epoch": "2025-12-14T13:05:53.801376",
        "meta_mean_motion": 14.1785875,
        "meta_eccentricity": 0.00869875,
        "meta_inclination": 99.2056,
        "meta_ra_of_asc_node": 17.2536,
        "meta_arg_of_pericenter": 315.124,
        "meta_mean_anomaly": 44.2923,
        "meta_ephemeris_type": 0,
        "meta_classification_type": "U",
        "meta_norad_cat_id": 31041,
        "meta_element_set_no": 999,
        "meta_rev_at_epoch": 95515,
        "meta_bstar": 0.0019740368,
        "meta_mean_motion_dot": 4.139e-05,
        "meta_mean_motion_ddot": 0,
        "tle_line1": "1 31041U 99025BEK 25348.54576159  .00004139  00000+0  19740-2 0  9997",
        "tle_line2": "2 31041  99.2056  17.2536 0086987 315.1240  44.2923 14.17858750955155"
      },
      "geometry": {
        "type": "Point",
        "coordinates": [
          -175.39629109205043,
          -56.05565415650833
        ]
      }
    },
    {
      "type": "Feature",
      "properties": {
        "norad_id": 31043,
        "name": "FENGYUN 1C DEB",
        "group": "fengyun-1c-debris",
        "lat": 36.021791907329025,
        "lon": -166.0449787420908,
        "alt_km": 887.4791659529265,
        "timestamp": "2025-12-15T19:00:45.636915+00:00",
        "meta_object_name": "FENGYUN 1C DEB",
        "meta_object_id": "1999-025BEM",
        "meta_epoch": "2025-12-14T13:57:26.872128",
        "meta_mean_motion": 14.08432059,
        "meta_eccentricity": 0.00412927,
        "meta_inclination": 98.7643,
        "meta_ra_of_asc_node": 6.3384,
        "meta_arg_of_pericenter": 358.9331,
        "meta_mean_anomaly": 129.2766,
        "meta_ephemeris_type": 0,
        "meta_classification_type": "U",
        "meta_norad_cat_id": 31043,
        "meta_element_set_no": 999,
        "meta_rev_at_epoch": 96013,
        "meta_bstar": 0.00062151143,
        "meta_mean_motion_dot": 1.031e-05,
        "meta_mean_motion_ddot": 0,
        "tle_line1": "1 31043U 99025BEM 25348.58156102  .00001031  00000+0  62151-3 0  9998",
        "tle_line2": "2 31043  98.7643   6.3384 0041292 358.9331 129.2766 14.08432059960132"
      },
      "geometry": {
        "type": "Point",
        "coordinates": [
          -166.0449787420908,
          36.021791907329025
        ]
      }
    },
    {
      "type": "Feature",
      "properties": {
        "norad_id": 31046,
        "name": "FENGYUN 1C DEB",
        "group": "fengyun-1c-debris",
        "lat": -30.111739851566362,
        "lon": -75.5075408437248,
        "alt_km": 700.9192623496283,
        "timestamp": "2025-12-15T19:00:45.636926+00:00",
        "meta_object_name": "FENGYUN 1C DEB",
        "meta_object_id": "1999-025BEQ",
        "meta_epoch": "2025-12-14T07:56:04.363584",
        "meta_mean_motion": 14.63894172,
        "meta_eccentricity": 0.00462786,
        "meta_inclination": 98.9673,
        "meta_ra_of_asc_node": 108.1573,
        "meta_arg_of_pericenter": 98.156,
        "meta_mean_anomaly": 333.4914,
        "meta_ephemeris_type": 0,
        "meta_classification_type": "U",
        "meta_norad_cat_id": 31046,
        "meta_element_set_no": 999,
        "meta_rev_at_epoch": 96666,
        "meta_bstar": 0.0043770092,
        "meta_mean_motion_dot": 0.0002326,
        "meta_mean_motion_ddot": 0,
        "tle_line1": "1 31046U 99025BEQ 25348.33060606  .00023260  00000+0  43770-2 0  9990",
        "tle_line2": "2 31046  98.9673 108.1573 0046278  98.1560 333.4914 14.63894172966664"
      },
      "geometry": {
        "type": "Point",
        "coordinates": [
          -75.5075408437248,
          -30.111739851566362
        ]
      }
    },
    {
      "type": "Feature",
      "properties": {
        "norad_id": 31047,
        "name": "FENGYUN 1C DEB",
        "group": "fengyun-1c-debris",
        "lat": 5.937045704197405,
        "lon": 168.05569451870252,
        "alt_km": 829.8987179086016,
        "timestamp": "2025-12-15T19:00:45.636938+00:00",
        "meta_object_name": "FENGYUN 1C DEB",
        "meta_object_id": "1999-025BER",
        "meta_epoch": "2025-12-12T05:34:00.054912",
        "meta_mean_motion": 14.13841318,
        "meta_eccentricity": 0.00255963,
        "meta_inclination": 98.7004,
        "meta_ra_of_asc_node": 343.6788,
        "meta_arg_of_pericenter": 179.2346,
        "meta_mean_anomaly": 243.6594,
        "meta_ephemeris_type": 0,
        "meta_classification_type": "U",
        "meta_norad_cat_id": 31047,
        "meta_element_set_no": 999,
        "meta_rev_at_epoch": 96352,
        "meta_bstar": 0.00060318894,
        "meta_mean_motion_dot": 1.103e-05,
        "meta_mean_motion_ddot": 0,
        "tle_line1": "1 31047U 99025BER 25346.23194508  .00001103  00000+0  60319-3 0  9998",
        "tle_line2": "2 31047  98.7004 343.6788 0025596 179.2346 243.6594 14.13841318963525"
      },
      "geometry": {
        "type": "Point",
        "coordinates": [
          168.05569451870252,
          5.937045704197405
        ]
      }
    }
  ]
}